O3B MPOWER F1           
1 54755U 22174A   24040.52794230 -.00000016  00000+0  00000+0 0  9990
2 54755   0.0615   9.5706 0006339 321.1433 237.8421  5.00118397 22392
